$$SOE
2460154.500000000, A.D. 2023-Jul-29 00:00:00.0000, 2.842791025133577E+08, 2.057722184884938E+08, -5.555386699295019E+07,
2460161.500000000, A.D. 2023-Aug-05 00:00:00.0000, 2.760160502252913E+08, 2.154262825952516E+08, -5.812633633567573E+07,
2460168.500000000, A.D. 2023-Aug-12 00:00:00.0000, 2.674535458811512E+08, 2.248465779893903E+08, -6.063567008821616E+07,
2460175.500000000, A.D. 2023-Aug-19 00:00:00.0000, 2.586001587310792E+08, 2.340222671142651E+08, -6.307897997266888E+07,
2460182.500000000, A.D. 2023-Aug-26 00:00:00.0000, 2.494650315046932E+08, 2.429429183530481E+08, -6.545348770127614E+07,
2460189.500000000, A.D. 2023-Sep-02 00:00:00.0000, 2.400578527397074E+08, 2.515985433940447E+08, -6.775653491825688E+07,
2460196.500000000, A.D. 2023-Sep-09 00:00:00.0000, 2.303888258106252E+08, 2.599796321257693E+08, -6.998559251356229E+07,
2460203.500000000, A.D. 2023-Sep-16 00:00:00.0000, 2.204686350902569E+08, 2.680771846774808E+08, -7.213826924242395E+07,
2460210.500000000, A.D. 2023-Sep-23 00:00:00.0000, 2.103084099672322E+08, 2.758827406002768E+08, -7.421231958934775E+07,
2460217.500000000, A.D. 2023-Sep-30 00:00:00.0000, 1.999196867232994E+08, 2.833884061228681E+08, -7.620565068237007E+07,
2460224.500000000, A.D. 2023-Oct-07 00:00:00.0000, 1.893143662832373E+08, 2.905868787211568E+08, -7.811632802831206E+07,
2460231.500000000, A.D. 2023-Oct-14 00:00:00.0000, 1.785046692655123E+08, 2.974714655252073E+08, -7.994258039076898E+07,
2460238.500000000, A.D. 2023-Oct-21 00:00:00.0000, 1.675030919729434E+08, 3.040360970509393E+08, -8.168280394675240E+07,
2460245.500000000, A.D. 2023-Oct-28 00:00:00.0000, 1.563223623105774E+08, 3.102753384442836E+08, -8.333556538632381E+07,
2460252.500000000, A.D. 2023-Nov-04 00:00:00.0000, 1.449753947884270E+08, 3.161843974512735E+08, -8.489960389684859E+07,
2460259.500000000, A.D. 2023-Nov-11 00:00:00.0000, 1.334752451919006E+08, 3.217591285527279E+08, -8.637383210746293E+07,
2460266.500000000, A.D. 2023-Nov-18 00:00:00.0000, 1.218350655362101E+08, 3.269960332839170E+08, -8.775733604400849E+07,
2460273.500000000, A.D. 2023-Nov-25 00:00:00.0000, 1.100680597569440E+08, 3.318922568858754E+08, -8.904937413504145E+07,
2460280.500000000, A.D. 2023-Dec-02 00:00:00.0000, 9.818744051842876E+07, 3.364455814366216E+08, -9.024937531645101E+07,
2460287.500000000, A.D. 2023-Dec-09 00:00:00.0000, 8.620638753903389E+07, 3.406544155954932E+08, -9.135693629790199E+07,
2460294.500000000, A.D. 2023-Dec-16 00:00:00.0000, 7.413800800651796E+07, 3.445177811952138E+08, -9.237181807491514E+07,
2460301.500000000, A.D. 2023-Dec-23 00:00:00.0000, 6.199529968051795E+07, 3.480352976177172E+08, -9.329394172847894E+07,
2460308.500000000, A.D. 2023-Dec-30 00:00:00.0000, 4.979111555524043E+07, 3.512071652704244E+08, -9.412338337586886E+07,
2460315.500000000, A.D. 2024-Jan-06 00:00:00.0000, 3.753812848355421E+07, 3.540341460775091E+08, -9.486036837615448E+07,
2460322.500000000, A.D. 2024-Jan-13 00:00:00.0000, 2.524879906520157E+07, 3.565175394675918E+08, -9.550526530592653E+07,
2460329.500000000, A.D. 2024-Jan-20 00:00:00.0000, 1.293534812168407E+07, 3.586591572397947E+08, -9.605857964809249E+07,
2460336.500000000, A.D. 2024-Jan-27 00:00:00.0000, 6.097317951313512E+05, 3.604612982484384E+08, -9.652094703316721E+07,
2460343.500000000, A.D. 2024-Feb-03 00:00:00.0000, -1.171638112861906E+07, 3.619267222372400E+08, -9.689312614608002E+07,
2460350.500000000, A.D. 2024-Feb-10 00:00:00.0000, -2.403162939928525E+07, 3.630586228027295E+08, -9.717599142014818E+07,
2460357.500000000, A.D. 2024-Feb-17 00:00:00.0000, -3.632497687765275E+07, 3.638605997529246E+08, -9.737052559927201E+07,
2460364.500000000, A.D. 2024-Feb-24 00:00:00.0000, -4.858572752971862E+07, 3.643366311184791E+08, -9.747781223510972E+07,
2460371.500000000, A.D. 2024-Mar-02 00:00:00.0000, -6.080353789092619E+07, 3.644910450085272E+08, -9.749902818442726E+07,
2460378.500000000, A.D. 2024-Mar-09 00:00:00.0000, -7.296842696166581E+07, 3.643284914540094E+08, -9.743543617917970E+07,
2460385.500000000, A.D. 2024-Mar-16 00:00:00.0000, -8.507078325483082E+07, 3.638539146215689E+08, -9.728837753888905E+07,
2460392.500000000, A.D. 2024-Mar-23 00:00:00.0000, -9.710136922801161E+07, 3.630725266736847E+08, -9.705926496991295E+07,
2460399.500000000, A.D. 2024-Mar-30 00:00:00.0000, -1.090513254778710E+08, 3.619897833953449E+08, -9.674957528802603E+07,
2460406.500000000, A.D. 2024-Apr-06 00:00:00.0000, -1.209121745816244E+08, 3.606113583417575E+08, -9.636084239437234E+07,
2460413.500000000, A.D. 2024-Apr-13 00:00:00.0000, -1.326758211850813E+08, 3.589431164453624E+08, -9.589465078811610E+07,
2460420.500000000, A.D. 2024-Apr-20 00:00:00.0000, -1.443345494417019E+08, 3.569910898487443E+08, -9.535262933485168E+07,
2460427.500000000, A.D. 2024-Apr-27 00:00:00.0000, -1.558810194671715E+08, 3.547614554727767E+08, -9.473644521661833E+07,
2460434.500000000, A.D. 2024-May-04 00:00:00.0000, -1.673082628675298E+08, 3.522605136681610E+08, -9.404779814212918E+07,
2460441.500000000, A.D. 2024-May-11 00:00:00.0000, -1.786096772458358E+08, 3.494946678853912E+08, -9.328841485669321E+07,
2460448.500000000, A.D. 2024-May-18 00:00:00.0000, -1.897790197438260E+08, 3.464704054084462E+08, -9.246004396351501E+07,
2460455.500000000, A.D. 2024-May-25 00:00:00.0000, -2.008103997262063E+08, 3.431942791566195E+08, -9.156445106191996E+07,
2460462.500000000, A.D. 2024-Jun-01 00:00:00.0000, -2.116982706732444E+08, 3.396728904976701E+08, -9.060341421245256E+07,
2460469.500000000, A.D. 2024-Jun-08 00:00:00.0000, -2.224374211534372E+08, 3.359128730402982E+08, -8.957871975049862E+07,
2460476.500000000, A.D. 2024-Jun-15 00:00:00.0000, -2.330229645873116E+08, 3.319208779337327E+08, -8.849215843556052E+07,
2460483.500000000, A.D. 2024-Jun-22 00:00:00.0000, -2.434503289106680E+08, 3.277035618261322E+08, -8.734552174162796E+07,
2460490.500000000, A.D. 2024-Jun-29 00:00:00.0000, -2.537152483522631E+08, 3.232675756331283E+08, -8.614059823514479E+07,
2460497.500000000, A.D. 2024-Jul-06 00:00:00.0000, -2.638137547624367E+08, 3.186195516093392E+08, -8.487917047357848E+07,
2460504.500000000, A.D. 2024-Jul-13 00:00:00.0000, -2.737421666198086E+08, 3.137660915032007E+08, -8.356301235916379E+07,
2460511.500000000, A.D. 2024-Jul-20 00:00:00.0000, -2.834970777738443E+08, 3.087137569001192E+08, -8.219388666011634E+07,
2460518.500000000, A.D. 2024-Jul-27 00:00:00.0000, -2.930753466430465E+08, 3.034690607495431E+08, -8.077354270562887E+07,
2460525.500000000, A.D. 2024-Aug-03 00:00:00.0000, -3.024740856532245E+08, 2.980384596541647E+08, -7.930371429818523E+07,
2460532.500000000, A.D. 2024-Aug-10 00:00:00.0000, -3.116906508016168E+08, 2.924283468706657E+08, -7.778611784731105E+07,
2460539.500000000, A.D. 2024-Aug-17 00:00:00.0000, -3.207226313441379E+08, 2.866450459987606E+08, -7.622245071604329E+07,
2460546.500000000, A.D. 2024-Aug-24 00:00:00.0000, -3.295678396154530E+08, 2.806948052916105E+08, -7.461438977278394E+07,
2460553.500000000, A.D. 2024-Aug-31 00:00:00.0000, -3.382243008976228E+08, 2.745837924812465E+08, -7.296359015200067E+07,
2460560.500000000, A.D. 2024-Sep-07 00:00:00.0000, -3.466902429980264E+08, 2.683180902004619E+08, -7.127168423466571E+07,
2460567.500000000, A.D. 2024-Sep-14 00:00:00.0000, -3.549640854734516E+08, 2.619036929525876E+08, -6.954028076283526E+07,
2460574.500000000, A.D. 2024-Sep-21 00:00:00.0000, -3.630444305484884E+08, 2.553465059990094E+08, -6.777096385741708E+07,
2460581.500000000, A.D. 2024-Sep-28 00:00:00.0000, -3.709300562310981E+08, 2.486523428971646E+08, -6.596529214773045E+07,
2460588.500000000, A.D. 2024-Oct-05 00:00:00.0000, -3.786199079648011E+08, 2.418269216513994E+08, -6.412479833807683E+07,
2460595.500000000, A.D. 2024-Oct-12 00:00:00.0000, -3.861130891856669E+08, 2.348758624169180E+08, -6.225098892390064E+07,
2460602.500000000, A.D. 2024-Oct-19 00:00:00.0000, -3.934088525427164E+08, 2.278046864501177E+08, -6.034534391013339E+07,
2460609.500000000, A.D. 2024-Oct-26 00:00:00.0000, -4.005065918182632E+08, 2.206188154714258E+08, -5.840931658567821E+07,
2460616.500000000, A.D. 2024-Nov-02 00:00:00.0000, -4.074058342917599E+08, 2.133235712609746E+08, -5.644433338114625E+07,
2460623.500000000, A.D. 2024-Nov-09 00:00:00.0000, -4.141062334496840E+08, 2.059241754779510E+08, -5.445179380881871E+07,
2460630.500000000, A.D. 2024-Nov-16 00:00:00.0000, -4.206075620133334E+08, 1.984257496758822E+08, -5.243307047955733E+07,
2460637.500000000, A.D. 2024-Nov-23 00:00:00.0000, -4.269097052341071E+08, 1.908333154378497E+08, -5.038950919793057E+07,
2460644.500000000, A.D. 2024-Nov-30 00:00:00.0000, -4.330126542432929E+08, 1.831517945646389E+08, -4.832242915148017E+07,
2460651.500000000, A.D. 2024-Dec-07 00:00:00.0000, -4.389164990311713E+08, 1.753860097136460E+08, -4.623312319196549E+07,
2460658.500000000, A.D. 2024-Dec-14 00:00:00.0000, -4.446214217377562E+08, 1.675406866910375E+08, -4.412285803960811E+07,
2460665.500000000, A.D. 2024-Dec-21 00:00:00.0000, -4.501276925679170E+08, 1.596204571367749E+08, -4.199287429397668E+07,
2460672.500000000, A.D. 2024-Dec-28 00:00:00.0000, -4.554356663518394E+08, 1.516298586182843E+08, -3.984438667016928E+07,
2460679.500000000, A.D. 2025-Jan-04 00:00:00.0000, -4.605457771440579E+08, 1.435733344926698E+08, -3.767858449920312E+07,
2460686.500000000, A.D. 2025-Jan-11 00:00:00.0000, -4.654585326731690E+08, 1.354552351805010E+08, -3.549663218526976E+07,
2460693.500000000, A.D. 2025-Jan-18 00:00:00.0000, -4.701745095520092E+08, 1.272798199176661E+08, -3.329966960712460E+07,
2460700.500000000, A.D. 2025-Jan-25 00:00:00.0000, -4.746943489972298E+08, 1.190512584983217E+08, -3.108881252124439E+07,
2460707.500000000, A.D. 2025-Feb-01 00:00:00.0000, -4.790187528603167E+08, 1.107736329673614E+08, -2.886515298316351E+07,
2460714.500000000, A.D. 2025-Feb-08 00:00:00.0000, -4.831484799030772E+08, 1.024509392713754E+08, -2.662975978755364E+07,
2460721.500000000, A.D. 2025-Feb-15 00:00:00.0000, -4.870843422803770E+08, 9.408708883837448E+07, -2.438367892845559E+07,
$$EOE